COSMOS 1408 DEB         
1 49527U 82092Q   25065.57193893  .00132783  00000+0  41229-2 0  9994
2 49527  82.3511 120.9357 0154880 289.9317  68.5290 15.21942121174001
COSMOS 1408 DEB         
1 49537U 82092AA  25065.63065457  .00042631  00000+0  95177-3 0  9990
2 49537  82.5438  30.8673 0076122 210.7314 148.9465 15.40257388181968
COSMOS 1408 DEB         
1 50032U 82092RU  25065.70483161  .00006775  00000+0  15562-3 0  9995
2 50032  82.5677 345.7771 0017861 145.9662 214.2735 15.42302676182671
COSMOS 1408 DEB         
1 50058U 82092SW  25065.78381707  .00023256  00000+0  41746-3 0  9990
2 50058  82.6164 359.8844 0025183  59.2457 301.1269 15.49386181184358
COSMOS 1408 DEB         
1 50404U 82092ADS 25065.62733653  .00042922  00000+0  30176-2 0  9994
2 50404  82.2274 132.6371 0302622  52.3199 310.5043 14.74665102170041
COSMOS 1408 DEB         
1 50621U 82092ALR 25065.72949681  .00021955  00000+0  47100-3 0  9995
2 50621  82.5778   3.5783 0040813  98.5239 262.0637 15.43661674178983
COSMOS 1408 DEB         
1 51184U 82092AZJ 25065.15265640  .00108296  00000+0  55876-3 0  9996
2 51184  82.4814 323.1154 0008298   4.6414 355.4929 15.80756557177385
COSMOS 1408 DEB         
1 52066U 82092BUU 25064.35562580  .00183479  00000+0  16665-2 0  9998
2 52066  82.4948  38.7691 0047899 262.1012  97.4810 15.65915597166400
